#aV2008  8  4  0  0   .00000000      96 DD+AD WGS84 FIT  NGA
## 1491  86400.00000000   900.00000000 54682  .0000000000000
+   31     2  3  4  5  6  7  8  9 10 11 12 13 14 15 16 17 18
+         19 20 21 22 23 24 25 26 27 28 29 30 31 32  0  0  0
+          0  0  0  0  0  0  0  0  0  0  0  0  0  0  0  0  0
+          0  0  0  0  0  0  0  0  0  0  0  0  0  0  0  0  0
+          0  0  0  0  0  0  0  0  0  0  0  0  0  0  0  0  0
++         0  0  0  0  0  0  0  0  0  0  0  0  0  0  0  0  0
++         0  0  0  0  0  0  0  0  0  0  0  0  0  0  0  0  0
++         0  0  0  0  0  0  0  0  0  0  0  0  0  0  0  0  0
++         0  0  0  0  0  0  0  0  0  0  0  0  0  0  0  0  0
++         0  0  0  0  0  0  0  0  0  0  0  0  0  0  0  0  0
%c cc cc ccc ccc cccc cccc cccc cccc ccccc ccccc ccccc ccccc
%c cc cc ccc ccc cccc cccc cccc cccc ccccc ccccc ccccc ccccc
%f  0.0000000  0.000000000  0.00000000000  0.000000000000000
%f  0.0000000  0.000000000  0.00000000000  0.000000000000000
%i    0    0    0    0      0      0      0      0         0
%i    0    0    0    0      0      0      0      0         0
/*      NGA, ST. LOUIS,MO.                                  
/*   EPHEMERIS COMPUTED FROM  3 DAYS OF DATA                
/* CCCCCCCCCCCCCCCCCCCCCCCCCCCCCCCCCCCCCCCCCCCCCCCCCCCCCCCCC
/* CCCCCCCCCCCCCCCCCCCCCCCCCCCCCCCCCCCCCCCCCCCCCCCCCCCCCCCCC
*  2008  8  4 11 45   .00000000                                                 
P  2  14371.673719   7288.625941 -21298.802033    197.309366                    
V  2  -5325.171198  26200.504766   5045.713060      -.026839                    
P  3 -23676.334355  -9115.015537   8180.520973    264.968883                    
V  3  -6819.154100  -8911.249703 -28368.239042       .052031                    
P  4   8852.830253  18274.444565 -17026.484370   -133.359226                    
V  4  -6633.530878  20714.734648  19259.441601      -.102624                    
P  5  19638.774037 -15663.453336  -8694.425743   -361.261361                    
V  5  11064.506462  -1505.854355  28783.226740      -.093151                    
P  6 -22510.396874 -13164.435245   5206.746960    165.700651                    
V  6  -2763.457494  -6775.937938 -30211.687454       .018722                    
P  7  -7321.279515  25279.839708  -3241.792663      4.610817                    
V  7  -1942.312071  -4553.992886 -31505.667564       .045250                    
P  8    132.119298  24569.675220   9350.700533   -164.523969                    
V  8  -5201.880260  11174.992049 -29500.512033      -.015161                    
P  9  13581.849366 -15501.719902  16033.459115      8.435456                    
V  9  -1531.548744  21630.792761  21500.912876       .018544                    
P 10  24184.320890    811.425949 -11454.860683     -3.533944                    
V 10 -12957.172246   6210.489572 -26922.633329      -.003526                    
P 11 -12321.696931  17639.333278  15204.420323     22.236597                    
V 11  -3602.717356 -19972.756412  20381.126692      -.006118                    
P 12  23502.430346 -11307.123189  -4644.285913   -355.463743                    
V 12   6570.925921    669.118298  31176.275881       .009960                    
P 13  -1657.529428  16910.755125 -20535.227847    266.383148                    
V 13 -18941.203050 -17404.789509 -12870.753703       .014118                    
P 14 -14230.327971 -20880.870247   8468.328484   -236.206420                    
V 14   8843.002624   5982.228118  29867.509761       .045030                    
P 15  20303.318522   1544.047803  17082.894420   -154.196296                    
V 15  15293.320105  15432.732682 -19585.065787      -.064419                    
P 16 -21011.046580  -4645.961480 -15640.675569    113.830810                    
V 16  18418.997148  -7682.617700 -22164.465210      -.018377                    
P 17  14832.643736  20721.050337   7831.965055     38.911368                    
V 17  -9004.278673  -4708.507605  29509.798886       .002102                    
P 18   7540.196213 -16741.340248  19254.325184   -148.786172                    
V 18  23653.504100  -5408.162149 -14475.541716       .042337                    
P 19 -19682.882822  -1949.134246  17904.107712     34.337388                    
V 19 -14761.990027 -17054.674405 -17970.930718       .004351                    
P 20 -22120.320817  13109.008581  -6707.951173    108.396187                    
V 20  -8954.258288    -90.726743  29891.891553      -.010478                    
P 21   3885.199040 -25831.066191   2505.593567     55.670934                    
V 21   4683.153454  -2036.215868 -31361.016876      -.013649                    
P 22  -7216.853753 -14084.537912  21493.981540    211.439597                    
V 22  25788.118741  -7923.405015   3430.124368      -.002306                    
P 23 -12326.436043   9004.751636 -21821.465263    367.487572                    
V 23 -20493.057167 -18329.827425   3768.098207       .016923                    
P 24  12966.202772 -20735.617559 -10529.085191    114.529895                    
V 24   -847.902692  13746.548864 -27410.498519       .028299                    
P 25  -9235.392746  22765.857983  -9961.767805   -211.126882                    
V 25   -998.561450 -13272.495031 -28220.493202      -.107438                    
P 26  21147.675758   7675.976709  14038.002360    304.200831                    
V 26  12454.623503  13614.166878 -24807.987399       .064109                    
P 27  -3568.022626  26239.686371     33.174247    207.640370                    
V 27  -2519.040278  -1121.704635 -32048.562687       .026676                    
P 28   5935.561975  14175.921199  22063.632334    -21.601177                    
V 28 -25861.431927   7972.751744   1540.279360      -.001504                    
P 29   4896.497565 -15410.539969 -20959.683669    -40.551700                    
V 29  20331.923729  17599.518974  -8112.888543       .007631                    
P 30  12794.595708 -17186.841559 -15984.755278     89.380250                    
V 30  19171.179860  -5117.560600  21414.276690       .020068                    
P 31  -9700.443044 -16266.226159 -18376.221299    -25.010181                    
V 31   6015.579958 -23040.897924  17140.224590      -.000720                    
P 32 -25741.758642   6134.267386    334.332905    311.529884                    
V 32   -746.995714  -2630.953149  32038.449567       .021515                    
EOF
